OBJECT_NAME,OBJECT_ID,EPOCH,MEAN_MOTION,ECCENTRICITY,INCLINATION,RA_OF_ASC_NODE,ARG_OF_PERICENTER,MEAN_ANOMALY,EPHEMERIS_TYPE,CLASSIFICATION_TYPE,NORAD_CAT_ID,ELEMENT_SET_NO,REV_AT_EPOCH,BSTAR,MEAN_MOTION_DOT,MEAN_MOTION_DDOT
SWARM A,2013-067B,2026-07-17T03:39:40.061664,15.51481584,.0003334,87.3295,45.0980,92.9687,267.1956,0,U,39452,999,71089,.97552E-4,.5802E-4,0
SWARM C,2013-067C,2026-07-17T03:39:32.080032,15.51480875,.000333,87.3295,43.6789,93.1570,267.0072,0,U,39453,999,71085,.97553E-4,.5802E-4,0
BRITE-CA1 (TORONTO),2014-033L,2026-07-16T19:07:57.386208,14.72724378,.007856,97.9774,326.1854,181.1277,178.9766,0,U,40020,999,64657,.84822E-4,.514E-5,0
OCO 2,2014-035A,2026-07-17T02:17:02.796000,14.57133047,.0001433,98.2020,138.9341,81.2374,278.8987,0,U,40059,999,64040,.48905E-4,.175E-5,0
BRITE-PL2 (HEWELIUSZ),2014-049B,2026-07-16T21:31:13.773216,14.94689258,.0014172,97.9120,310.1310,16.6624,343.5058,0,U,40119,999,64588,.50495E-4,.489E-5,0
MMS 1,2015-011A,2026-07-17T06:00:02.000160,0.28341126,.8302807,72.4730,348.4255,168.1015,125.0935,0,U,40482,999,136,0,-.1355E-4,0
MMS 2,2015-011B,2026-07-17T04:00:01.998720,0.28340952,.8305699,72.4790,348.4244,168.1036,116.5797,0,U,40483,999,136,0,-.1362E-4,0
MMS 3,2015-011C,2026-07-17T04:00:01.998720,0.28340961,.8304069,72.4788,348.4363,168.1113,116.5537,0,U,40484,999,133,0,-.1362E-4,0
MMS 4,2015-011D,2026-07-17T04:00:01.998720,0.28340991,.8304021,72.4743,348.4198,168.1212,116.5492,0,U,40485,999,136,0,-.1362E-4,0
ASTROSAT,2015-052A,2026-07-17T02:16:44.412672,14.82553761,.0007399,5.9974,300.0769,103.0203,257.0751,0,U,40930,999,58427,.50566E-4,.1086E-4,0
DAMPE,2015-078A,2026-07-17T04:07:02.790048,15.30856155,.0011353,97.4558,203.7878,338.3505,21.7254,0,U,41173,999,58913,.21272E-4,.557E-5,0
PISAT,2016-059B,2026-07-16T13:40:01.956576,14.69031064,.0030481,97.8192,196.7617,110.6238,249.8241,0,U,41784,999,52405,.81287E-4,.433E-5,0
HXMT (HUIYAN),2017-034A,2026-07-16T23:53:49.878816,15.18698236,.0032083,43.0154,17.0306,332.0044,27.9078,0,U,42758,999,50219,.11653E-3,.2246E-4,0
FLYING LAPTOP,2017-042G,2026-07-17T04:18:34.390944,15.01320038,.0019613,97.4815,352.5854,26.2023,334.0190,0,U,42831,999,49095,.14024E-3,.1754E-4,0
ZHANGHENG 1-01 (CSES-1),2018-015C,2026-07-17T04:57:59.546016,15.20623725,.0016569,97.6896,4.4655,158.1717,202.0227,0,U,43194,999,46920,.1854E-3,.4006E-4,0
SALSAT,2020-068K,2026-07-16T21:40:14.441952,15.30185999,.0009381,97.8857,202.7868,186.6655,173.4461,0,U,46495,999,31990,.13754E-3,.3936E-4,0
IXPE,2021-121A,2026-07-17T04:00:01.998720,15.10498117,.0007402,0.2309,90.1629,174.5442,163.5649,0,U,49954,999,571,.37271E-3,.725E-4,0
SMILE,2026-109A,2026-07-13T23:01:31.580256,0.47500629,.83137076,70.0512,206.6048,286.9544,0.1879,0,U,69123,999,6,0,.936E-5,0
