SWARM A                 
1 39452U 13067B   26198.15254701  .00005802  00000+0  97552-4 0  9997
2 39452  87.3295  45.0980 0003334  92.9687 267.1956 15.51481584710892
SWARM C                 
1 39453U 13067C   26198.15245463  .00005802  00000+0  97553-4 0  9994
2 39453  87.3295  43.6789 0003330  93.1570 267.0072 15.51480875710850
BRITE-CA1 (TORONTO)     
1 40020U 14033L   26197.79719197  .00000514  00000+0  84822-4 0  9999
2 40020  97.9774 326.1854 0078560 181.1277 178.9766 14.72724378646570
OCO 2                   
1 40059U 14035A   26198.09517125  .00000175  00000+0  48905-4 0  9999
2 40059  98.2020 138.9341 0001433  81.2374 278.8987 14.57133047640404
BRITE-PL2 (HEWELIUSZ)   
1 40119U 14049B   26197.89668719  .00000489  00000+0  50495-4 0  9999
2 40119  97.9120 310.1310 0014172  16.6624 343.5058 14.94689258645889
MMS 1                   
1 40482U 15011A   26198.25002315 -.00001355  00000+0  00000+0 0  9993
2 40482  72.4730 348.4255 8302807 168.1015 125.0935  0.28341126  1366
MMS 2                   
1 40483U 15011B   26198.16668980 -.00001362  00000+0  00000+0 0  9998
2 40483  72.4790 348.4244 8305699 168.1036 116.5797  0.28340952  1363
MMS 3                   
1 40484U 15011C   26198.16668980 -.00001362  00000+0  00000+0 0  9999
2 40484  72.4788 348.4363 8304069 168.1113 116.5537  0.28340961  1338
MMS 4                   
1 40485U 15011D   26198.16668980 -.00001362  00000+0  00000+0 0  9990
2 40485  72.4743 348.4198 8304021 168.1212 116.5492  0.28340991  1360
ASTROSAT                
1 40930U 15052A   26198.09495848  .00001086  00000+0  50566-4 0  9992
2 40930   5.9974 300.0769 0007399 103.0203 257.0751 14.82553761584279
DAMPE                   
1 41173U 15078A   26198.17156007  .00000557  00000+0  21272-4 0  9994
2 41173  97.4558 203.7878 0011353 338.3505  21.7254 15.30856155589137
PISAT                   
1 41784U 16059B   26197.56946709  .00000433  00000+0  81287-4 0  9995
2 41784  97.8192 196.7617 0030481 110.6238 249.8241 14.69031064524056
HXMT (HUIYAN)           
1 42758U 17034A   26197.99571619  .00002246  00000+0  11653-3 0  9995
2 42758  43.0154  17.0306 0032083 332.0044  27.9078 15.18698236502193
FLYING LAPTOP           
1 42831U 17042G   26198.17956471  .00001754  00000+0  14024-3 0  9998
2 42831  97.4815 352.5854 0019613  26.2023 334.0190 15.01320038490951
ZHANGHENG 1-01 (CSES-1) 
1 43194U 18015C   26198.20693919  .00004006  00000+0  18540-3 0  9991
2 43194  97.6896   4.4655 0016569 158.1717 202.0227 15.20623725469208
SALSAT                  
1 46495U 20068K   26197.90294493  .00003936  00000+0  13754-3 0  9992
2 46495  97.8857 202.7868 0009381 186.6655 173.4461 15.30185999319903
IXPE                    
1 49954U 21121A   26198.16668980  .00007250  00000+0  37271-3 0  9994
2 49954   0.2309  90.1629 0007402 174.5442 163.5649 15.10498117  5718
SMILE                   
1 69123U 26109A   26194.95939329  .00000936  00000+0  00000+0 0  9996
2 69123  70.0512 206.6048 8313707 286.9544   0.1879  0.47500629    65
